SL-14 R/B               
1 21423U 91042B   26064.70618727  .00000687  00000+0  83894-4 0  9990
2 21423  82.4915 223.9178 0015632 252.8210 107.1293 14.81824771852485
ERS-1                   
1 21574U 91050A   26064.66568799  .00000425  00000+0  15043-3 0  9994
2 21574  98.7885  82.7991 0031406 212.5632 147.3618 14.39445679815159
ARIANE 40 R/B           
1 21610U 91050F   26064.65686726  .00000431  00000+0  14136-3 0  9994
2 21610  98.2021 117.0445 0004355  90.0778 270.0912 14.42890368818412
INTERCOSMOS 25          
1 21819U 91086A   26064.69509710  .00001644  00000+0  31546-3 0  9996
2 21819  82.6058 312.4229 1487007 125.5367 249.3693 12.11987048496209
SL-8 R/B                
1 21876U 92008B   26064.65023582  .00000003  00000+0 -12834-4 0  9997
2 21876  82.9226 270.7840 0035347 144.3311 279.6722 13.75969751708869
SL-8 R/B                
1 21938U 92020B   26064.70290906  .00000108  00000+0  96012-4 0  9997
2 21938  82.9341 156.7210 0027810 310.4040 166.8656 13.75548996700589
USA 81                  
1 21949U 92023A   26064.67691384  .00000242  00000+0  82214-4 0  9991
2 21949  85.0092 133.7560 0002571  80.6897 279.4586 14.32366484 94217
COSMOS 2219             
1 22219U 92076A   26064.34745490  .00000282  00000+0  17249-3 0  9991
2 22219  71.0624  27.1440 0019249 212.8488 147.1440 14.14090569717762
SL-16 R/B               
1 22220U 92076B   26064.67934068 -.00000045  00000+0  13476-5 0  9998
2 22220  71.0002 196.8203 0010510 103.7880 352.7880 14.16860255721262
COSMOS 2221             
1 22236U 92080A   26064.69155274  .00002665  00000+0  23393-3 0  9992
2 22236  82.5012 282.9117 0013677 201.0010 159.0652 14.96183542780199
SL-16 R/B               
1 22285U 92093B   26064.56996145 -.00000172  00000+0 -63522-4 0  9998
2 22285  71.0239  12.9132 0006350 298.0914  61.9567 14.15449187712578
COSMOS 2228             
1 22286U 92094A   26064.71056104  .00003443  00000+0  29499-3 0  9995
2 22286  82.5148 241.1211 0017028 318.8824  41.1114 14.97167509775464
